# From MPC106342
C/1995 O1 (Hale-Bopp),e,89.1462,283.0299,130.4485,177.6904,0.0004161,0.99496439,0.0000,03/29.7296/1997,2000,g -2.0,4.0
# From MPC 27287
C/1996 B2 (Hyakutake),e,125.6344,186.7783,129.3893,1526,0.0000165,0.99985083,0.0000,04/20.1998/1996,2000,g 10.0,4.0
# From NK 1615
P/1996 R2 (Lagerkvist),e,2.6007,40.0138,333.3482,3.774903,0.1343833,0.31438112,140.2716,12/22.0/2021,2000,g 11.5,4.0
# From MPC 30063
P/1997 B1 (Kobayashi),e,12.3394,328.8820,183.3203,8.581910,0.0392038,0.76040508,356.2084,12/22.0/2021,2000,g 15.0,2.0
# From MPC 75703
P/1998 VS24 (LINEAR),e,5.0265,159.0386,244.6052,4.527132,0.1023221,0.24263155,146.6588,12/22.0/2021,2000,g 13.0,2.0
# From NK 731
P/1999 RO28 (LONEOS),e,7.5670,137.8841,231.2699,3.426668,0.1553803,0.67238001,141.3216,12/22.0/2021,2000,g 20.0,2.0
# From MPC 75704
P/1999 XN120 (Catalina),e,5.0297,285.2961,161.7694,4.178926,0.1153737,0.21025969,191.1763,12/22.0/2021,2000,g 13.5,2.0
# From NK 744
P/2000 R2 (LINEAR),e,11.6871,160.2856,176.5618,3.467131,0.1526683,0.53158323,140.2026,12/22.0/2021,2000,g 18.0,4.0
# From MPC 43019
P/2001 H5 (NEAT),e,8.3671,328.6845,224.8124,6.097108,0.0654664,0.59827217,147.8362,12/22.0/2021,2000,g 12.0,4.0
# From MPC 75704
P/2001 Q6 (NEAT),e,56.9110,22.1734,42.9302,7.955263,0.0439261,0.82312543,324.9208,12/22.0/2021,2000,g 13.5,4.0
# From MPC 47727
P/2002 EJ57 (LINEAR),e,4.9764,330.3224,167.3313,6.467633,0.0599220,0.59230574,76.9004,12/22.0/2021,2000,g 12.5,4.0
# From MPEC 2021-W31
C/2002 O4 (Hoenig),h,09/30.3979/2002,73.1860,322.0409,105.4037,1.000255,0.761612,2000,9.5,4.0
# From MPC109588
P/2002 T6 (NEAT-LINEAR),e,10.8423,206.1683,219.6592,7.698937,0.0461379,0.56128379,316.5238,12/22.0/2021,2000,g 10.5,4.0
# From MPC 75007
C/2002 VQ94 (LINEAR),e,70.6452,35.0919,100.0727,184.6049,0.0003930,0.96304210,2.2819,12/22.0/2021,2000,g  9.5,2.0
# From MPC 50354
P/2003 F2 (NEAT),e,11.6079,359.0121,192.2019,6.502265,0.0594439,0.54196558,45.7924,12/22.0/2021,2000,g 16.5,2.0
# From MPC 50139
P/2003 QX29 (NEAT),e,11.3909,264.5468,37.5671,8.022870,0.0433720,0.47288093,302.6264,12/22.0/2021,2000,g  8.5,4.0
# From MPC105235
P/2003 T12 (SOHO),e,11.0214,174.5816,219.7478,2.585796,0.2370351,0.76990898,140.8014,12/22.0/2021,2000,g 17.0,4.0
# From MPC 82312
P/2004 A1 (LONEOS),e,10.5517,124.8527,21.2012,7.965196,0.0438439,0.30947995,278.6678,12/22.0/2021,2000,g  6.5,4.0
# From MPC 54558
P/2004 DO29 (Spacewatch-LINEAR),e,14.5323,147.3725,40.6074,7.289128,0.0500830,0.44110696,315.1594,12/22.0/2021,2000,g 13.5,2.0
# From MPC 54823
P/2004 FY140 (LINEAR),e,2.1348,326.7678,242.2969,4.904791,0.0907347,0.16799879,212.8841,12/22.0/2021,2000,g 12.5,2.0
# From MPC 53304
P/2004 R3 (LINEAR-NEAT),e,12.7875,305.4026,37.8668,4.778340,0.0943601,0.25766389,8.5611,12/22.0/2021,2000,g 14.5,4.0
# From MPC 55521
P/2004 V3 (Siding Spring),e,50.4432,356.1283,322.4081,7.136454,0.0516988,0.44621863,323.7828,12/22.0/2021,2000,g 11.5,4.0
# From MPC 75705
P/2004 V5 (LINEAR-Hill),e,19.3402,47.7904,87.6417,7.983125,0.0436963,0.44389622,269.8146,12/22.0/2021,2000,g  8.0,4.0
# From MPC 54164
P/2005 E1 (Tubbiolo),e,4.2637,335.5693,193.9849,7.044190,0.0527178,0.37523226,325.9402,12/22.0/2021,2000,g 10.0,4.0
# From MPC 54823
P/2005 GF8 (LONEOS),e,1.1857,314.5962,284.5701,5.810047,0.0703776,0.51705459,57.4998,12/22.0/2021,2000,g 11.5,4.0
# From MPC 79019
P/2005 J1 (McNaught),e,31.7527,268.8203,338.9556,3.571029,0.1460542,0.56934771,170.4212,12/22.0/2021,2000,g 16.5,4.0
# From MPC 74246
P/2005 L1 (McNaught),e,7.7384,138.2484,149.7513,3.978049,0.1242221,0.21001238,6.1041,12/22.0/2021,2000,g  9.5,4.0
# From MPC 75706
P/2005 S2 (Skiff),e,3.1357,161.2183,229.2364,8.011291,0.0434661,0.19792477,247.7851,12/22.0/2021,2000,g  7.5,4.0
# From MPC 75706
P/2005 SB216 (LONEOS),e,24.0987,1.1551,83.3182,7.136972,0.0516932,0.46407340,283.1285,12/22.0/2021,2000,g 12.0,2.0
# From MPEC 2021-W47
P/2005 T2 (Christensen),e,8.2889,260.1567,58.9265,3.846526,0.1306475,0.41583743,81.7361,12/22.0/2021,2000,g 14.5,4.0
# From MPC 73461
P/2005 T3 (Read),e,6.2236,27.6988,6.7258,7.585383,0.0471778,0.17484227,279.8732,12/22.0/2021,2000,g  9.0,4.0
# From MPC 73461
P/2005 T4 (SWAN),e,160.2388,25.8305,41.7384,9.360892,0.0344135,0.92971044,203.8636,12/22.0/2021,2000,g 15.0,4.0
# From MPC 75706
P/2005 T5 (Broughton),e,21.3689,56.9996,304.6164,7.286321,0.0501120,0.55253100,296.3505,12/22.0/2021,2000,g 11.0,4.0
# From MPC 75706
P/2005 Y2 (McNaught),e,19.0456,94.2947,193.8031,6.361293,0.0614308,0.46929375,26.3859,12/22.0/2021,2000,g  9.0,4.0
# From MPC 56954
P/2006 F4 (Spacewatch),e,12.4401,183.8236,30.7767,3.517442,0.1494045,0.34109171,130.3506,12/22.0/2021,2000,g 15.0,4.0
# From MPC 75707
P/2006 HR30 (Siding Spring),e,31.8383,309.8820,117.3142,7.810538,0.0451526,0.84263162,247.8198,12/22.0/2021,2000,g 11.0,4.0
# From MPC 75707
P/2007 A2 (Christensen),e,26.4874,300.9103,186.7122,6.331898,0.0618591,0.55801115,338.8372,12/22.0/2021,2000,g 13.5,4.0
# From MPC 75707
P/2007 C2 (Catalina),e,8.6209,275.4174,180.1156,6.993685,0.0532899,0.47145831,277.2027,12/22.0/2021,2000,g 10.0,4.0
# From MPC 84315
C/2007 D1 (LINEAR),e,41.5017,171.2284,339.9248,1301,0.0000210,0.99322626,0.0000,06/07.5402/2007,2000,g  3.5,4.0
# From MPC 82314
P/2007 K2 (Gibbs),e,7.6291,188.6377,347.4033,7.269328,0.0502878,0.68296090,267.7141,12/22.0/2021,2000,g 14.0,4.0
# From MPC 60925
P/2007 Q2 (Gilmore),e,10.2026,172.1563,162.8046,5.654368,0.0733041,0.67012296,28.5892,12/22.0/2021,2000,g 16.0,4.0
# From MPC 73462
P/2007 S1 (Zhao),e,5.9640,141.3702,245.4079,3.821118,0.1319527,0.33973357,321.7921,12/22.0/2021,2000,g 13.0,4.0
# From MPC 61994
P/2007 T2 (Kowalski),e,9.7513,3.3762,359.6469,3.046480,0.1853560,0.78556100,231.0723,12/22.0/2021,2000,g 18.5,4.0
# From MPC 75709
P/2008 L2 (Hill),e,25.8667,218.0140,141.2447,6.027498,0.0666037,0.61332525,326.3609,12/22.0/2021,2000,g 12.5,4.0
# From MPC 64114
P/2008 O3 (Boattini),e,32.2989,47.5751,341.1255,8.218809,0.0418303,0.69590456,207.3385,12/22.0/2021,2000,g 13.0,4.0
# From MPEC 2021-X81
P/2008 WZ96 (LINEAR),e,7.1144,56.4185,341.9882,3.487173,0.1513540,0.46943625,17.8467,12/22.0/2021,2000,g 17.2,4.0
# From MPC 75710
P/2008 Y3 (McNaught),e,38.7722,262.8235,238.1343,8.047551,0.0431726,0.44551486,205.1231,12/22.0/2021,2000,g  8.5,4.0
# From MPC 75710
P/2009 B1 (Boattini),e,22.2252,297.0840,128.8786,6.737428,0.0563589,0.63516778,266.8631,12/22.0/2021,2000,g 13.0,4.0
# From MPC 66466
C/2009 G1 (STEREO),e,108.6639,120.4780,175.4627,450.5758,0.0001031,0.99747313,0.0000,04/16.9238/2009,2000,g  9.0,4.0
# From MPC 75710
P/2009 O3 (Hill),e,16.2827,183.6915,154.4541,7.768003,0.0455240,0.68786980,209.1084,12/22.0/2021,2000,g 12.5,4.0
# From MPC 68902
P/2009 Q5 (McNaught),e,40.9887,160.2800,209.0537,7.433392,0.0486322,0.60945624,218.2294,12/22.0/2021,2000,g 10.0,4.0
# From MPC112389
P/2009 T2 (La Sagra),e,27.5836,215.8564,216.3513,7.721503,0.0459358,0.76579782,201.0651,12/22.0/2021,2000,g 14.0,4.0
# From MPC105235
P/2009 WX51 (Catalina),e,9.5935,31.6272,118.1801,3.082187,0.1821443,0.73999619,72.9900,12/22.0/2021,2000,g 19.0,2.0
# From MPC 74247
P/2009 Y2 (Kowalski),e,29.9446,262.0307,172.1338,6.550196,0.0587926,0.63632385,253.7443,12/22.0/2021,2000,g 13.0,4.0
# From MPC 75711
P/2010 A3 (Hill),e,14.8245,63.7500,42.2098,6.081487,0.0657188,0.73359305,282.6952,12/22.0/2021,2000,g 14.0,4.0
# From MPC 75008
P/2010 C1 (Scotti),e,9.1282,141.8864,3.5558,7.103940,0.0520541,0.25928195,230.4514,12/22.0/2021,2000,g  9.5,4.0
# From MPC 75008
P/2010 D2 (WISE),e,57.0891,319.8884,119.9904,6.718604,0.0565960,0.45118769,245.2703,12/22.0/2021,2000,g 16.0,4.0
# From MPC 75009
P/2010 E2 (Jarnac),e,15.3887,177.8214,8.3416,8.639858,0.0388100,0.71960356,166.3464,12/22.0/2021,2000,g 14.0,4.0
# From MPC 72851
P/2010 H2 (Vales),e,14.2757,64.1917,128.0520,3.833003,0.1313395,0.19610906,205.6618,12/22.0/2021,2000,g  6.0,4.0
# From MPC 70361
P/2010 H3 (SOHO),e,23.0640,77.0844,26.1611,3.037020,0.1862227,0.98535570,0.0000,02/07.9380/2021,2000,g 20.0,2.0
# From MPC 73463
P/2010 H4 (Scotti),e,2.3180,44.7326,179.4627,6.595156,0.0581924,0.26664664,244.9407,12/22.0/2021,2000,g 10.5,4.0
# From MPC 74637
P/2010 H5 (Scotti),e,14.0597,24.7994,175.0191,7.165996,0.0513794,0.15277536,220.2330,12/22.0/2021,2000,g 13.0,2.0
# From MPC 98558
P/2010 J3 (McMillan),e,13.2787,106.4362,157.5985,8.976123,0.0366497,0.72636404,151.4969,12/22.0/2021,2000,g 11.0,4.0
# From MPC 84315
P/2010 JC81 (WISE),e,38.7859,30.8574,12.4240,8.107907,0.0426915,0.77741275,166.3817,12/22.0/2021,2000,g  9.0,4.0
# From MPC 74248
P/2010 T2 (PANSTARRS),e,7.8890,58.7365,353.0907,5.544416,0.0754954,0.32198086,298.1688,12/22.0/2021,2000,g 11.5,4.0
# From MPC 98558
P/2010 TO20 (LINEAR-Grauer),e,2.4788,43.2900,267.0723,5.831770,0.0699848,0.05534630,336.4796,12/22.0/2021,2000,g  9.0,4.0
# From MPC 82316
P/2010 U1 (Boattini),e,8.2168,280.6960,86.0741,6.506434,0.0593867,0.24880982,257.9752,12/22.0/2021,2000,g  9.5,4.0
# From MPEC 2021-R75
C/2010 U3 (Boattini),e,55.5390,43.0080,88.0426,2417,0.0000083,0.99650666,0.0000,02/25.2194/2019,2000,g  1.0,4.0
# From MPC 79021
P/2010 UH55 (Spacewatch),e,8.0396,232.9254,225.1568,6.653871,0.0574239,0.56343372,224.6176,12/22.0/2021,2000,g 11.0,4.0
# From MPC 75009
P/2010 WK (LINEAR),e,11.4015,11.3314,40.9668,5.761977,0.0712602,0.69020860,292.8242,12/22.0/2021,2000,g 14.5,2.0
# From MPC 84021
P/2011 C2 (Gibbs),e,10.8856,12.1229,160.7553,7.413170,0.0488313,0.26892466,178.2082,12/22.0/2021,2000,g  9.0,4.0
# From MPC 79866
P/2011 FR143 (Lemmon),e,15.9774,190.9501,350.0320,6.860842,0.0548451,0.45051310,216.8504,12/22.0/2021,2000,g 14.0,2.0
# From MPC 82317
P/2011 JB15 (Spacewatch-Boattini),e,19.1476,153.5803,111.0729,7.360817,0.0493532,0.31693388,178.7913,12/22.0/2021,2000,g  9.0,4.0
# From MPC 87913
P/2011 N1 (ASH),e,35.7413,77.5861,330.3495,6.247257,0.0631204,0.54447361,221.0987,12/22.0/2021,2000,g 11.5,4.0
# From MPC 75714
P/2011 NO1 (Elenin),e,15.2465,295.8150,263.7513,5.527397,0.0758443,0.77454514,302.7278,12/22.0/2021,2000,g 15.0,4.0
# From MPC 82318
